COMMENT,ORIGINATOR,NORAD_CAT_ID,OBJECT_NAME,OBJECT_TYPE,CLASSIFICATION_TYPE,INTLDES,EPOCH,EPOCH_MICROSECONDS,MEAN_MOTION,ECCENTRICITY,INCLINATION,RA_OF_ASC_NODE,ARG_OF_PERICENTER,MEAN_ANOMALY,EPHEMERIS_TYPE,ELEMENT_SET_NO,REV_AT_EPOCH,BSTAR,MEAN_MOTION_DOT,MEAN_MOTION_DDOT,FILE,TLE_LINE0,TLE_LINE1,TLE_LINE2,OBJECT_ID,OBJECT_NUMBER,SEMIMAJOR_AXIS,PERIOD,APOGEE,PERIGEE,DECAYED
"GENERATED VIA SPACETRACK.ORG API","18 SPCS","55101","SPACEBEE-159","PAYLOAD","U","23001CW","2024-01-06 17:07:16","450176","15.31896314","0.0013013","97.4493","71.3951","11.7748","348.3795","0","999","5613","0.0008503","0.00026235","0","4155301","0 SPACEBEE-159","1 55101U 23001CW  24006.71338484  .00026235  00000-0  85030-3 0  9995","2 55101  97.4493  71.3951 0013013  11.7748 348.3795 15.31896314 56137","2023-001CW","55101","6848.292","94.001","479.069","461.245","0"
"GENERATED VIA SPACETRACK.ORG API","18 SPCS","55101","SPACEBEE-159","PAYLOAD","U","23001CW","2024-01-06 17:07:16","450176","15.31896314","0.0013013","97.4493","71.3951","11.7748","348.3795","0","999","5613","0.0008503","0.00026235","0","4155325","0 SPACEBEE-159","1 55101U 23001CW  24006.71338484  .00026235  00000-0  85030-3 0  9995","2 55101  97.4493  71.3951 0013013  11.7748 348.3795 15.31896314 56137","2023-001CW","55101","6848.292","94.001","479.069","461.245","0"
"GENERATED VIA SPACETRACK.ORG API","18 SPCS","55101","SPACEBEE-159","PAYLOAD","U","23001CW","2024-01-07 04:05:41","942976","15.31922164","0.0013024","97.4491","71.8549","10.163","349.9873","0","999","5620","0.00080896","0.00024972","0","4155883","0 SPACEBEE-159","1 55101U 23001CW  24007.17062434  .00024972  00000-0  80896-3 0  9996","2 55101  97.4491  71.8549 0013024  10.1630 349.9873 15.31922164 56203","2023-001CW","55101","6848.215","94.000","478.999","461.161","0"
"GENERATED VIA SPACETRACK.ORG API","18 SPCS","55101","SPACEBEE-159","PAYLOAD","U","23001CW","2024-01-07 16:38:10","284576","15.3195441","0.0012942","97.4491","72.3802","8.3828","351.7627","0","999","5628","0.00092279","0.00028537","0","4156156","0 SPACEBEE-159","1 55101U 23001CW  24007.69317459  .00028537  00000-0  92279-3 0  9992","2 55101  97.4491  72.3802 0012942   8.3828 351.7627 15.31954410 56282","2023-001CW","55101","6848.119","93.998","478.847","461.121","0"
"GENERATED VIA SPACETRACK.ORG API","18 SPCS","55101","SPACEBEE-159","PAYLOAD","U","23001CW","2024-01-08 03:36:34","318080","15.31981239","0.0012966","97.4488","72.8402","6.726","353.4153","0","999","5635","0.00094042","0.00029111","0","4156415","0 SPACEBEE-159","1 55101U 23001CW  24008.15039720  .00029111  00000-0  94042-3 0  9995","2 55101  97.4488  72.8402 0012966   6.7260 353.4153 15.31981239 56357","2023-001CW","55101","6848.039","93.996","478.783","461.025","0"
"GENERATED VIA SPACETRACK.ORG API","18 SPCS","55101","SPACEBEE-159","PAYLOAD","U","23001CW","2024-01-08 03:36:34","318080","15.31981239","0.0012966","97.4488","72.8402","6.726","353.4153","0","999","5635","0.00094042","0.00029111","0","4156666","0 SPACEBEE-159","1 55101U 23001CW  24008.15039720  .00029111  00000-0  94042-3 0  9995","2 55101  97.4488  72.8402 0012966   6.7260 353.4153 15.31981239 56357","2023-001CW","55101","6848.039","93.996","478.783","461.025","0"
"GENERATED VIA SPACETRACK.ORG API","18 SPCS","55101","SPACEBEE-159","PAYLOAD","U","23001CW","2024-01-08 16:09:00","963648","15.32012558","0.0012856","97.4488","73.3653","4.8695","355.2669","0","999","5643","0.00096871","0.00030021","0","4156930","0 SPACEBEE-159","1 55101U 23001CW  24008.67292782  .00030021  00000-0  96871-3 0  9995","2 55101  97.4488  73.3653 0012856   4.8695 355.2669 15.32012558 56431","2023-001CW","55101","6847.945","93.994","478.614","461.007","0"
"GENERATED VIA SPACETRACK.ORG API","18 SPCS","55101","SPACEBEE-159","PAYLOAD","U","23001CW","2024-01-09 09:23:35","930112","15.32062248","0.0012945","97.4484","74.0875","2.1275","358.0019","0","999","5654","0.0011158","0.00034667","0","4157489","0 SPACEBEE-159","1 55101U 23001CW  24009.39138808  .00034667  00000-0  11158-2 0  9997","2 55101  97.4484  74.0875 0012945   2.1275 358.0019 15.32062248 56548","2023-001CW","55101","6847.797","93.991","478.527","460.798","0"
"GENERATED VIA SPACETRACK.ORG API","18 SPCS","55101","SPACEBEE-159","PAYLOAD","U","23001CW","2024-01-09 09:23:35","930112","15.32062248","0.0012945","97.4484","74.0875","2.1275","358.0019","0","999","5654","0.0011158","0.00034667","0","4157515","0 SPACEBEE-159","1 55101U 23001CW  24009.39138808  .00034667  00000-0  11158-2 0  9997","2 55101  97.4484  74.0875 0012945   2.1275 358.0019 15.32062248 56548","2023-001CW","55101","6847.797","93.991","478.527","460.798","0"
"GENERATED VIA SPACETRACK.ORG API","18 SPCS","55101","SPACEBEE-159","PAYLOAD","U","23001CW","2024-01-09 17:13:51","138336","15.32087468","0.001294","97.4484","74.4159","0.9995","359.127","0","999","5659","0.0011708","0.00036416","0","4157773","0 SPACEBEE-159","1 55101U 23001CW  24009.71795299  .00036416  00000-0  11708-2 0  9991","2 55101  97.4484  74.4159 0012940   0.9995 359.1270 15.32087468 56594","2023-001CW","55101","6847.722","93.989","478.448","460.726","0"
"GENERATED VIA SPACETRACK.ORG API","18 SPCS","55101","SPACEBEE-159","PAYLOAD","U","23001CW","2024-01-10 04:12:11","696832","15.32119286","0.0012934","97.4483","74.8754","359.4639","0.6586","0","999","5666","0.0011055","0.00034406","0","4158336","0 SPACEBEE-159","1 55101U 23001CW  24010.17513538  .00034406  00000-0  11055-2 0  9999","2 55101  97.4483  74.8754 0012934 359.4639   0.6586 15.32119286 56668","2023-001CW","55101","6847.627","93.987","478.349","460.636","0"
"GENERATED VIA SPACETRACK.ORG API","18 SPCS","55101","SPACEBEE-159","PAYLOAD","U","23001CW","2024-01-10 15:10:31","348992","15.32155045","0.0012866","97.4481","75.3352","357.9959","2.1229","0","999","5673","0.0011494","0.00035821","0","4158604","0 SPACEBEE-159","1 55101U 23001CW  24010.63230728  .00035821  00000-0  11494-2 0  9996","2 55101  97.4481  75.3352 0012866 357.9959   2.1229 15.32155045 56730","2023-001CW","55101","6847.521","93.985","478.196","460.576","0"
"GENERATED VIA SPACETRACK.ORG API","18 SPCS","55101","SPACEBEE-159","PAYLOAD","U","23001CW","2024-01-11 03:42:52","629984","15.32201025","0.0012826","97.4477","75.8605","356.0757","4.0382","0","999","5681","0.0013617","0.00042549","0","4159230","0 SPACEBEE-159","1 55101U 23001CW  24011.15477581  .00042549  00000-0  13617-2 0  9998","2 55101  97.4477  75.8605 0012826 356.0757   4.0382 15.32201025 56813","2023-001CW","55101","6847.384","93.982","478.031","460.466","0"
"GENERATED VIA SPACETRACK.ORG API","18 SPCS","55101","SPACEBEE-159","PAYLOAD","U","23001CW","2024-01-11 03:42:52","629984","15.32201025","0.0012826","97.4477","75.8605","356.0757","4.0382","0","999","5681","0.0013617","0.00042549","0","4159265","0 SPACEBEE-159","1 55101U 23001CW  24011.15477581  .00042549  00000-0  13617-2 0  9998","2 55101  97.4477  75.8605 0012826 356.0757   4.0382 15.32201025 56813","2023-001CW","55101","6847.384","93.982","478.031","460.466","0"
"GENERATED VIA SPACETRACK.ORG API","18 SPCS","55101","SPACEBEE-159","PAYLOAD","U","23001CW","2024-01-11 17:49:14","865888","15.32254596","0.0012737","97.4475","76.4518","353.9265","6.182","0","999","5690","0.0013663","0.00042765","0","4159545","0 SPACEBEE-159","1 55101U 23001CW  24011.74253317  .00042765  00000-0  13663-2 0  9993","2 55101  97.4475  76.4518 0012737 353.9265   6.1820 15.32254596 56903","2023-001CW","55101","6847.224","93.979","477.811","460.368","0"
"GENERATED VIA SPACETRACK.ORG API","18 SPCS","55101","SPACEBEE-159","PAYLOAD","U","23001CW","2024-01-12 09:29:37","607424","15.32311235","0.0012596","97.4472","77.1084","351.552","8.5508","0","999","5700","0.0013743","0.00043091","0","4160109","0 SPACEBEE-159","1 55101U 23001CW  24012.39557416  .00043091  00000-0  13743-2 0  9994","2 55101  97.4472  77.1084 0012596 351.5520   8.5508 15.32311235 57002","2023-001CW","55101","6847.056","93.976","477.545","460.296","0"
"GENERATED VIA SPACETRACK.ORG API","18 SPCS","55101","SPACEBEE-159","PAYLOAD","U","23001CW","2024-01-12 17:19:48","201024","15.32339343","0.0012607","97.4471","77.4369","350.3449","9.7548","0","999","5705","0.0013402","0.00042051","0","4160381","0 SPACEBEE-159","1 55101U 23001CW  24012.72208566  .00042051  00000-0  13402-2 0  9997","2 55101  97.4471  77.4369 0012607 350.3449   9.7548 15.32339343 57052","2023-001CW","55101","6846.972","93.974","477.469","460.205","0"
"GENERATED VIA SPACETRACK.ORG API","18 SPCS","55101","SPACEBEE-159","PAYLOAD","U","23001CW","2024-01-12 17:19:48","201024","15.32339343","0.0012607","97.4471","77.4369","350.3449","9.7548","0","999","5705","0.0013402","0.00042051","0","4160399","0 SPACEBEE-159","1 55101U 23001CW  24012.72208566  .00042051  00000-0  13402-2 0  9997","2 55101  97.4471  77.4369 0012607 350.3449   9.7548 15.32339343 57052","2023-001CW","55101","6846.972","93.974","477.469","460.205","0"
"GENERATED VIA SPACETRACK.ORG API","18 SPCS","55101","SPACEBEE-159","PAYLOAD","U","23001CW","2024-01-13 02:44:00","197952","15.32375259","0.0012526","97.4471","77.8314","349.0951","11.0017","0","999","5711","0.0014012","0.00044028","0","4160970","0 SPACEBEE-159","1 55101U 23001CW  24013.11389118  .00044028  00000-0  14012-2 0  9998","2 55101  97.4471  77.8314 0012526 349.0951  11.0017 15.32375259 57119","2023-001CW","55101","6846.865","93.972","477.306","460.153","0"
"GENERATED VIA SPACETRACK.ORG API","18 SPCS","55101","SPACEBEE-159","PAYLOAD","U","23001CW","2024-01-14 03:48:28","532448","15.32467615","0.0012428","97.4466","78.8823","345.4432","14.645","0","999","5727","0.001453","0.000458","0","4161549","0 SPACEBEE-159","1 55101U 23001CW  24014.15866357  .00045800  00000-0  14530-2 0  9992","2 55101  97.4466  78.8823 0012428 345.4432  14.6450 15.32467615 57279","2023-001CW","55101","6846.590","93.966","476.964","459.946","0"
